ADRAS-J                 
1 58992U 24034A   24173.59846494  .00003942  00000+0  36809-3 0  9998
2 58992  98.2110 146.8171 0044745  36.3105 324.1135 14.94050286 18520
